NORAD_CAT_ID,OBJECT_NAME,OBJECT_TYPE,EPOCH,MEAN_MOTION,ECCENTRICITY,INCLINATION,RA_OF_ASC_NODE,ARG_OF_PERICENTER,MEAN_ANOMALY,BSTAR,MEAN_MOTION_DOT,MEAN_MOTION_DDOT,TLE_LINE0,TLE_LINE1,TLE_LINE2,SEMIMAJOR_AXIS,PERIOD,APOGEE,PERIGEE,DECAYED
53897.0,STARLINK-5035,PAYLOAD,2023-06-09 16:22:20,15.0883538,9.41e-05,53.2155,151.2804,92.8061,267.3039,2.2012e-05,6.3e-07,0.0,0 STARLINK-5035,1 53897U 22119M   23160.68217954  .00000063  00000-0  22012-4 0  9991,2 53897  53.2155 151.2804 0000941  92.8061 267.3039 15.08835380 40113,6917.895,95.438,540.41,539.109,0.0
53897.0,STARLINK-5035,PAYLOAD,2023-06-09 22:43:53,15.08832802,9.55e-05,53.2155,150.0908,92.5151,267.5951,1.5181e-06,-2.64e-06,0.0,0 STARLINK-5035,1 53897U 22119M   23160.94714279 -.00000264  00000-0  15181-5 0  9996,2 53897  53.2155 150.0908 0000955  92.5151 267.5951 15.08832802 39734,6917.902,95.438,540.428,539.107,0.0
53897.0,STARLINK-5035,PAYLOAD,2023-06-10 08:16:11,15.08835014,9.66e-05,53.2155,148.3066,90.8219,269.2884,2.8345e-05,1.63e-06,0.0,0 STARLINK-5035,1 53897U 22119M   23161.34458201  .00000163  00000-0  28345-4 0  9993,2 53897  53.2155 148.3066 0000966  90.8219 269.2884 15.08835014 40214,6917.896,95.438,540.429,539.092,0.0
53897.0,STARLINK-5035,PAYLOAD,2023-06-10 19:23:53,15.08838362,0.0001,53.2155,146.2249,89.0005,271.1102,4.0363e-05,3.55e-06,0.0,0 STARLINK-5035,1 53897U 22119M   23161.80826070  .00000355  00000-0  40363-4 0  9994,2 53897  53.2155 146.2249 0001000  89.0005 271.1102 15.08838362 40288,6917.885,95.438,540.442,539.059,0.0
53897.0,STARLINK-5035,PAYLOAD,2023-06-11 08:06:58,15.08843839,0.0001037,53.2153,143.8455,85.2022,274.9089,7.0338e-05,8.32e-06,0.0,0 STARLINK-5035,1 53897U 22119M   23162.33817646  .00000832  00000-0  70338-4 0  9997,2 53897  53.2153 143.8455 0001037  85.2022 274.9089 15.08843839 40364,6917.869,95.437,540.451,539.016,0.0
53897.0,STARLINK-5035,PAYLOAD,2023-06-11 22:25:27,15.0883442,0.0001094,53.2153,141.1685,85.4188,274.6929,4.1426e-05,3.71e-06,0.0,0 STARLINK-5035,1 53897U 22119M   23162.93434407  .00000371  00000-0  41426-4 0  9997,2 53897  53.2153 141.1685 0001094  85.4188 274.6929 15.08834420 40454,6917.897,95.438,540.519,539.006,0.0
53897.0,STARLINK-5035,PAYLOAD,2023-06-12 04:46:59,15.08836577,0.0001095,53.2154,139.979,86.4729,273.6389,5.5771e-05,6e-06,0.0,0 STARLINK-5035,1 53897U 22119M   23163.19930284  .00000600  00000-0  55771-4 0  9993,2 53897  53.2154 139.9790 0001095  86.4729 273.6389 15.08836577 40072,6917.891,95.438,540.513,538.998,0.0
53897.0,STARLINK-5035,PAYLOAD,2023-06-12 07:57:45,15.08838311,0.0001109,53.2152,139.3839,87.1893,272.9226,5.464e-05,5.82e-06,0.0,0 STARLINK-5035,1 53897U 22119M   23163.33178187  .00000582  00000-0  54640-4 0  9998,2 53897  53.2152 139.3839 0001109  87.1893 272.9226 15.08838311 40513,6917.886,95.438,540.518,538.983,0.0
53897.0,STARLINK-5035,PAYLOAD,2023-06-12 15:54:41,15.08838723,0.0001109,53.2154,137.8972,86.2407,273.8712,3.5277e-05,2.74e-06,0.0,0 STARLINK-5035,1 53897U 22119M   23163.66298241  .00000274  00000-0  35277-4 0  9991,2 53897  53.2154 137.8972 0001109  86.2407 273.8712 15.08838723 40569,6917.884,95.438,540.516,538.982,0.0
53897.0,STARLINK-5035,PAYLOAD,2023-06-13 04:37:46,15.08835919,0.000103,53.2155,135.518,83.4162,276.6947,6.1209e-05,6.86e-06,0.0,0 STARLINK-5035,1 53897U 22119M   23164.19290355  .00000686  00000-0  61209-4 0  9999,2 53897  53.2155 135.5180 0001030  83.4162 276.6947 15.08835919 40640,6917.893,95.438,540.47,539.045,0.0
53897.0,STARLINK-5035,PAYLOAD,2023-06-13 22:07:01,15.08838719,0.000113,53.2159,132.2471,87.7667,272.3454,4.2786e-05,3.93e-06,0.0,0 STARLINK-5035,1 53897U 22119M   23164.92154185  .00000393  00000-0  42786-4 0  9994,2 53897  53.2159 132.2471 0001130  87.7667 272.3454 15.08838719 40758,6917.884,95.438,540.531,538.968,0.0
53897.0,STARLINK-5035,PAYLOAD,2023-06-14 07:39:19,15.08842034,0.0001144,53.2162,130.4631,88.7792,271.3332,6.28e-05,7.12e-06,0.0,0 STARLINK-5035,1 53897U 22119M   23165.31897893  .00000712  00000-0  62800-4 0  9992,2 53897  53.2162 130.4631 0001144  88.7792 271.3332 15.08842034 40811,6917.874,95.437,540.531,538.948,0.0
53897.0,STARLINK-5035,PAYLOAD,2023-06-15 02:43:58,15.08833906,0.0001191,53.2168,126.8976,86.1363,273.9765,3.8664e-06,-2.26e-06,0.0,0 STARLINK-5035,1 53897U 22119M   23166.11386784 -.00000226  00000-0  38664-5 0  9996,2 53897  53.2168 126.8976 0001191  86.1363 273.9765 15.08833906 40519,6917.899,95.438,540.588,538.94,0.0
53897.0,STARLINK-5035,PAYLOAD,2023-06-15 07:30:07,15.08837258,0.0001147,53.2165,126.0035,92.7591,267.3532,3.0568e-06,-2.39e-06,0.0,0 STARLINK-5035,1 53897U 22119M   23166.31258571 -.00000239  00000-0  30568-5 0  9999,2 53897  53.2165 126.0035 0001147  92.7591 267.3532 15.08837258 40963,6917.889,95.438,540.547,538.96,0.0
53897.0,STARLINK-5035,PAYLOAD,2023-06-16 05:45:30,15.08844657,0.0001153,53.2167,121.8403,92.206,267.9064,4.8345e-05,4.82e-06,0.0,0 STARLINK-5035,1 53897U 22119M   23167.23994093  .00000482  00000-0  48345-4 0  9997,2 53897  53.2167 121.8403 0001153  92.2060 267.9064 15.08844657 40686,6917.866,95.437,540.529,538.934,0.0
53897.0,STARLINK-5035,PAYLOAD,2023-06-16 13:42:26,15.08845549,0.0001162,53.2168,120.3535,91.3275,268.7851,1.097e-05,-1.13e-06,0.0,0 STARLINK-5035,1 53897U 22119M   23167.57114087 -.00000113  00000-0  10970-4 0  9996,2 53897  53.2168 120.3535 0001162  91.3275 268.7851 15.08845549 41152,6917.863,95.437,540.532,538.925,0.0
53897.0,STARLINK-5035,PAYLOAD,2023-06-17 05:36:18,15.08840587,0.0001209,53.217,117.3801,90.5863,269.5267,6.702e-05,7.79e-06,0.0,0 STARLINK-5035,1 53897U 22119M   23168.23354377  .00000779  00000-0  67020-4 0  9993,2 53897  53.2170 117.3801 0001209  90.5863 269.5267 15.08840587 40834,6917.879,95.438,540.58,538.907,0.0
53897.0,STARLINK-5035,PAYLOAD,2023-06-17 13:33:14,15.08832384,0.0001271,53.2168,115.893,92.137,267.9768,-8.765e-06,-4.27e-06,0.0,0 STARLINK-5035,1 53897U 22119M   23168.56475218 -.00000427  00000-0 -87650-5 0  9991,2 53897  53.2168 115.8930 0001271  92.1370 267.9768 15.08832384 40886,6917.904,95.438,540.648,538.889,0.0
53897.0,STARLINK-5035,PAYLOAD,2023-06-18 05:27:06,15.08833539,0.0001403,53.2164,112.9178,92.1823,267.933,-3.9253e-05,-9.12e-06,0.0,0 STARLINK-5035,1 53897U 22119M   23169.22715661 -.00000912  00000-0 -39253-4 0  9998,2 53897  53.2164 112.9178 0001403  92.1823 267.9330 15.08833539 41401,6917.9,95.438,540.736,538.795,0.0
53897.0,STARLINK-5035,PAYLOAD,2023-06-18 19:45:34,15.08836737,0.0001181,53.2163,110.244,90.5974,269.5154,4.0454e-05,3.56e-06,0.0,0 STARLINK-5035,1 53897U 22119M   23169.82331225  .00000356  00000-0  40454-4 0  9999,2 53897  53.2163 110.2440 0001181  90.5974 269.5154 15.08836737 41499,6917.89,95.438,540.572,538.938,0.0
53897.0,STARLINK-5035,PAYLOAD,2023-06-19 02:07:06,15.08840448,0.0001161,53.2161,109.0552,91.7095,268.403,6.4781e-05,7.43e-06,0.0,0 STARLINK-5035,1 53897U 22119M   23170.08826944  .00000743  00000-0  64781-4 0  9995,2 53897  53.2161 109.0552 0001161  91.7095 268.4030 15.08840448 41116,6917.879,95.438,540.547,538.941,0.0
53897.0,STARLINK-5035,PAYLOAD,2023-06-19 05:17:52,15.08847777,0.0001111,53.2162,108.4597,95.1764,264.9355,7.5425e-05,9.13e-06,0.0,0 STARLINK-5035,1 53897U 22119M   23170.22074433  .00000913  00000-0  75425-4 0  9995,2 53897  53.2162 108.4597 0001111  95.1764 264.9355 15.08847777 41130,6917.857,95.437,540.49,538.953,0.0
53897.0,STARLINK-5035,PAYLOAD,2023-06-19 13:14:48,15.08840428,0.0001095,53.2161,106.9723,92.0105,268.1012,1.2189e-05,-9.4e-07,0.0,0 STARLINK-5035,1 53897U 22119M   23170.55195078 -.00000094  00000-0  12189-4 0  9999,2 53897  53.2161 106.9723 0001095  92.0105 268.1012 15.08840428 41603,6917.879,95.438,540.502,538.987,0.0
53897.0,STARLINK-5035,PAYLOAD,2023-06-20 05:08:39,15.0884012,0.000117,53.2175,103.9968,98.7156,261.3969,7.56e-05,9.16e-06,0.0,0 STARLINK-5035,1 53897U 22119M   23171.21435080  .00000916  00000-0  75600-4 0  9992,2 53897  53.2175 103.9968 0001170  98.7156 261.3969 15.08840120 41705,6917.88,95.438,540.554,538.936,0.0
53897.0,STARLINK-5035,PAYLOAD,2023-06-20 13:05:35,15.088362,0.0001213,53.2166,102.5125,85.9487,274.1643,3.5863e-05,2.83e-06,0.0,0 STARLINK-5035,1 53897U 22119M   23171.54555551  .00000283  00000-0  35863-4 0  9998,2 53897  53.2166 102.5125 0001213  85.9487 274.1643 15.08836200 41332,6917.892,95.438,540.596,538.918,0.0
53897.0,STARLINK-5035,PAYLOAD,2023-06-20 19:27:08,15.08839783,0.0001279,53.2164,101.322,89.6107,270.5032,1.8927e-05,1.3e-07,0.0,0 STARLINK-5035,1 53897U 22119M   23171.81051415  .00000013  00000-0  18927-4 0  9991,2 53897  53.2164 101.3220 0001279  89.6107 270.5032 15.08839783 41796,6917.881,95.438,540.631,538.861,0.0
53897.0,STARLINK-5035,PAYLOAD,2023-06-21 01:48:40,15.08845196,0.0001194,53.2167,100.1324,92.5926,267.5203,1.4782e-05,-5.3e-07,0.0,0 STARLINK-5035,1 53897U 22119M   23172.07547033 -.00000053  00000-0  14782-4 0  9996,2 53897  53.2167 100.1324 0001194  92.5926 267.5203 15.08845196 41419,6917.865,95.437,540.555,538.904,0.0
53897.0,STARLINK-5035,PAYLOAD,2023-06-21 04:59:26,15.08847238,0.0001194,53.2168,99.5375,93.0553,267.0576,3.7638e-05,3.11e-06,0.0,0 STARLINK-5035,1 53897U 22119M   23172.20794800  .00000311  00000-0  37638-4 0  9998,2 53897  53.2168  99.5375 0001194  93.0553 267.0576 15.08847238 41854,6917.858,95.437,540.549,538.897,0.0
53897.0,STARLINK-5035,PAYLOAD,2023-06-22 04:50:13,15.08841855,0.0001186,53.2166,95.077,90.2849,269.8279,6.7211e-05,7.82e-06,0.0,0 STARLINK-5035,1 53897U 22119M   23173.20154961  .00000782  00000-0  67211-4 0  9999,2 53897  53.2166  95.0770 0001186  90.2849 269.8279 15.08841855 41589,6917.875,95.437,540.56,538.919,0.0
53897.0,STARLINK-5035,PAYLOAD,2023-06-22 19:08:42,15.08836501,0.0001375,53.2166,92.4009,103.3733,256.7412,1.2512e-05,-8.9e-07,0.0,0 STARLINK-5035,1 53897U 22119M   23173.79771556 -.00000089  00000-0  12512-4 0  9993,2 53897  53.2166  92.4009 0001375 103.3733 256.7412 15.08836501 41679,6917.891,95.438,540.707,538.805,0.0
